NORAD_CAT_ID,OBJECT_NAME,OBJECT_TYPE,EPOCH,MEAN_MOTION,ECCENTRICITY,INCLINATION,RA_OF_ASC_NODE,ARG_OF_PERICENTER,MEAN_ANOMALY,BSTAR,MEAN_MOTION_DOT,MEAN_MOTION_DDOT,TLE_LINE0,TLE_LINE1,TLE_LINE2,SEMIMAJOR_AXIS,PERIOD,APOGEE,PERIGEE,DECAYED
52291.0,STARLINK-3773,PAYLOAD,2022-11-12 18:48:17,15.08842764,0.0002308,53.216,144.0586,41.1663,318.9503,0.00028297,4.218e-05,0.0,0 STARLINK-3773,1 52291U 22041AG  22316.78354062  .00004218  00000-0  28297-3 0  9993,2 52291  53.2160 144.0586 0002308  41.1663 318.9503 15.08842764 32616,6917.871999999999,95.437,541.3340000000002,538.14,0.0
52291.0,STARLINK-3773,PAYLOAD,2022-11-12 20:23:41,15.08843754,0.000231,53.216,143.7612,41.2757,318.8409,0.00029395,4.394e-05,0.0,0 STARLINK-3773,1 52291U 22041AG  22316.84978032  .00004394  00000-0  29395-3 0  9994,2 52291  53.2160 143.7612 0002310  41.2757 318.8409 15.08843754 31400,6917.869000000002,95.437,541.332,538.136,0.0
52291.0,STARLINK-3773,PAYLOAD,2022-11-13 12:17:32,15.08856661,0.0002307,53.2161,140.7873,41.6737,318.4431,0.00010643,1.407e-05,0.0,0 STARLINK-3773,1 52291U 22041AG  22317.51217610  .00001407  00000-0  10643-3 0  9995,2 52291  53.2161 140.7873 0002307  41.6737 318.4431 15.08856661 31508,6917.829000000002,95.437,541.29,538.099,0.0
52291.0,STARLINK-3773,PAYLOAD,2022-11-13 18:39:04,15.08852182,0.0002281,53.2161,139.5977,41.7836,318.333,5.7572e-05,6.28e-06,0.0,0 STARLINK-3773,1 52291U 22041AG  22317.77713754  .00000628  00000-0  57572-4 0  9990,2 52291  53.2161 139.5977 0002281  41.7836 318.3330 15.08852182 31546,6917.843000000003,95.437,541.286,538.13,0.0
52291.0,STARLINK-3773,PAYLOAD,2022-11-14 05:46:46,15.08853663,0.000231,53.2162,137.5161,42.4978,317.6193,4.9398e-05,4.98e-06,0.0,0 STARLINK-3773,1 52291U 22041AG  22318.24081274  .00000498  00000-0  49398-4 0  9990,2 52291  53.2162 137.5161 0002310  42.4978 317.6193 15.08853663 32835,6917.839,95.437,541.302,538.106,0.0
52291.0,STARLINK-3773,PAYLOAD,2022-11-14 12:08:18,15.088514000000002,0.0002348,53.2159,136.3267,43.5674,316.5503,1.5534e-05,-4.1e-07,0.0,0 STARLINK-3773,1 52291U 22041AG  22318.50577258 -.00000041  00000-0  15534-4 0  9991,2 52291  53.2159 136.3267 0002348  43.5674 316.5503 15.08851400 31650,6917.846,95.437,541.335,538.086,0.0
52291.0,STARLINK-3773,PAYLOAD,2022-11-14 16:54:28,15.08846829,0.0002334,53.216,135.4344,43.7149,316.4028,-5.1858e-05,-1.114e-05,0.0,0 STARLINK-3773,1 52291U 22041AG  22318.70449543 -.00001114  00000-0 -51858-4 0  9990,2 52291  53.2160 135.4344 0002334  43.7149 316.4028 15.08846829 32901,6917.86,95.437,541.339,538.11,0.0
52291.0,STARLINK-3773,PAYLOAD,2022-11-15 11:59:05,15.08842256,0.0002337,53.2163,131.8664,41.5184,318.5985,-1.7452e-06,-3.16e-06,0.0,0 STARLINK-3773,1 52291U 22041AG  22319.49937271 -.00000316  00000-0 -17452-5 0  9993,2 52291  53.2163 131.8664 0002337  41.5184 318.5985 15.08842256 31800,6917.873000000001,95.437,541.355,538.122,0.0
52291.0,STARLINK-3773,PAYLOAD,2022-11-15 18:20:38,15.08844241,0.0002344,53.2164,130.6771,41.5274,318.5896,1.4216e-05,-6.2e-07,0.0,0 STARLINK-3773,1 52291U 22041AG  22319.76433005 -.00000062  00000-0  14216-4 0  9990,2 52291  53.2164 130.6771 0002344  41.5274 318.5896 15.08844241 33062,6917.8669999999975,95.437,541.354,538.111,0.0
52291.0,STARLINK-3773,PAYLOAD,2022-11-16 11:49:52,15.08844017,0.0002284,53.2162,127.4056,40.58,319.5362,7.816600000000001e-05,9.56e-06,0.0,0 STARLINK-3773,1 52291U 22041AG  22320.49296470  .00000956  00000-0  78166-4 0  9990,2 52291  53.2162 127.4056 0002284  40.5800 319.5362 15.08844017 31953,6917.868,95.437,541.313,538.153,0.0
52291.0,STARLINK-3773,PAYLOAD,2022-11-16 18:11:24,15.08843831,0.0002264,53.2162,126.2159,43.3364,316.7806,4.0832e-05,3.62e-06,0.0,0 STARLINK-3773,1 52291U 22041AG  22320.75792534  .00000362  00000-0  40832-4 0  9991,2 52291  53.2162 126.2159 0002264  43.3364 316.7806 15.08843831 31997,6917.869000000002,95.437,541.3,538.1669999999998,0.0
52291.0,STARLINK-3773,PAYLOAD,2022-11-17 10:05:16,15.08833782,0.0002322,53.2163,123.242,41.3015,318.8152,2.3694e-06,-2.51e-06,0.0,0 STARLINK-3773,1 52291U 22041AG  22321.42033521 -.00000251  00000-0  23694-5 0  9996,2 52291  53.2163 123.2420 0002322  41.3015 318.8152 15.08833782 33311,6917.899,95.438,541.371,538.158,0.0
52291.0,STARLINK-3773,PAYLOAD,2022-11-17 11:40:40,15.08833668,0.0002258,53.2173,122.9453,37.8014,322.3137,8.207000000000001e-06,-1.58e-06,0.0,0 STARLINK-3773,1 52291U 22041AG  22321.48657522 -.00000158  00000-0  82070-5 0  9994,2 52291  53.2173 122.9453 0002258  37.8014 322.3137 15.08833668 32103,6917.9,95.438,541.327,538.203,0.0
52291.0,STARLINK-3773,PAYLOAD,2022-11-18 11:31:26,15.08844346,0.0002389,53.2168,118.4845,42.287,317.8306,2.6341e-05,1.31e-06,0.0,0 STARLINK-3773,1 52291U 22041AG  22322.48016736  .00000131  00000-0  26341-4 0  9999,2 52291  53.2168 118.4845 0002389  42.2870 317.8306 15.08844346 33470,6917.8669999999975,95.437,541.385,538.0790000000002,0.0
52291.0,STARLINK-3773,PAYLOAD,2022-11-19 11:22:14,15.08829485,0.0002328,53.2168,114.0247,43.6444,316.4732,8.835e-05,1.118e-05,0.0,0 STARLINK-3773,1 52291U 22041AG  22323.47377516  .00001118  00000-0  88350-4 0  9999,2 52291  53.2168 114.0247 0002328  43.6444 316.4732 15.08829485 33625,6917.913000000001,95.438,541.388,538.1669999999998,0.0
52291.0,STARLINK-3773,PAYLOAD,2022-11-20 09:37:37,15.0884483,0.0002394,53.2162,109.8601,44.3078,315.8106,5.184300000000001e-05,5.37e-06,0.0,0 STARLINK-3773,1 52291U 22041AG  22324.40112562  .00000537  00000-0  51843-4 0  9992,2 52291  53.2162 109.8601 0002394  44.3078 315.8106 15.08844830 33763,6917.866,95.437,541.387,538.0740000000002,0.0
52291.0,STARLINK-3773,PAYLOAD,2022-11-20 17:34:33,15.08843535,0.0002381,53.2176,108.3747,34.3466,325.768,7.0158000000000015e-06,-1.77e-06,0.0,0 STARLINK-3773,1 52291U 22041AG  22324.73232711 -.00000177  00000-0  70158-5 0  9999,2 52291  53.2176 108.3747 0002381  34.3466 325.7680 15.08843535 32597,6917.87,95.437,541.382,538.087,0.0
52291.0,STARLINK-3773,PAYLOAD,2022-11-21 09:28:24,15.08838611,0.0002371,53.218,105.4015,35.3919,324.723,3.5357e-07,-2.83e-06,0.0,0 STARLINK-3773,1 52291U 22041AG  22325.39473084 -.00000283  00000-0  35357-6 0  9993,2 52291  53.2180 105.4015 0002371  35.3919 324.7230 15.08838611 33917,6917.885,95.438,541.39,538.109,0.0
52291.0,STARLINK-3773,PAYLOAD,2022-11-21 15:49:56,15.08844116,0.0002297,53.2174,104.2116,36.8808,323.2342,4.4758e-05,4.24e-06,0.0,0 STARLINK-3773,1 52291U 22041AG  22325.65968518  .00000424  00000-0  44758-4 0  9992,2 52291  53.2174 104.2116 0002297  36.8808 323.2342 15.08844116 33958,6917.868,95.437,541.322,538.144,0.0
52291.0,STARLINK-3773,PAYLOAD,2022-11-22 09:19:11,15.08836284,0.0002462,53.2168,100.9415,39.5513,320.5658,4.3977e-05,4.12e-06,0.0,0 STARLINK-3773,1 52291U 22041AG  22326.38832839  .00000412  00000-0  43977-4 0  9998,2 52291  53.2168 100.9415 0002462  39.5513 320.5658 15.08836284 34063,6917.892,95.438,541.46,538.054,0.0
52291.0,STARLINK-3773,PAYLOAD,2022-11-22 14:05:21,15.08834891,0.0002464,53.217,100.0493,40.2103,319.9071,2.6362e-05,1.31e-06,0.0,0 STARLINK-3773,1 52291U 22041AG  22326.58705041  .00000131  00000-0  26362-4 0  9991,2 52291  53.2170 100.0493 0002464  40.2103 319.9071 15.08834891 32879,6917.896,95.438,541.466,538.056,0.0
52291.0,STARLINK-3773,PAYLOAD,2022-11-22 15:40:44,15.08836892,0.0002386,53.2169,99.7512,41.7584,318.3590000000001,3.6208e-05,2.88e-06,0.0,0 STARLINK-3773,1 52291U 22041AG  22326.65328874  .00000288  00000-0  36208-4 0  9997,2 52291  53.2169  99.7512 0002386  41.7584 318.3590 15.08836892 32888,6917.89,95.438,541.405,538.104,0.0
52291.0,STARLINK-3773,PAYLOAD,2022-11-23 09:09:59,15.08832241,0.0002408,53.2171,96.4796,45.8081,314.3108,3.7664e-05,3.11e-06,0.0,0 STARLINK-3773,1 52291U 22041AG  22327.38193359  .00000311  00000-0  37664-4 0  9990,2 52291  53.2171  96.4796 0002408  45.8081 314.3108 15.08832241 32998,6917.904,95.438,541.435,538.1030000000002,0.0
52291.0,STARLINK-3773,PAYLOAD,2022-11-23 15:31:31,15.08830994,0.0002428,53.2172,95.2906,44.3267,315.7919,2.7924e-05,1.56e-06,0.0,0 STARLINK-3773,1 52291U 22041AG  22327.64689578  .00000156  00000-0  27924-4 0  9997,2 52291  53.2172  95.2906 0002428  44.3267 315.7919 15.08830994 34250,6917.908,95.438,541.453,538.0930000000002,0.0
52291.0,STARLINK-3773,PAYLOAD,2022-11-24 01:03:50,15.0884337,0.000247,53.2171,93.5065,42.3035,317.8147,-0.00014649,-2.619e-05,0.0,0 STARLINK-3773,1 52291U 22041AG  22328.04433308 -.00002619  00000-0 -14649-3 0  9997,2 52291  53.2171  93.5065 0002470  42.3035 317.8147 15.08843370 34319,6917.87,95.437,541.444,538.026,0.0
52291.0,STARLINK-3773,PAYLOAD,2022-11-24 09:00:46,15.08834766,0.0002375,53.2163,92.0181,41.2273,318.8898,4.5044e-05,4.29e-06,0.0,0 STARLINK-3773,1 52291U 22041AG  22328.37553356  .00000429  00000-0  45044-4 0  9998,2 52291  53.2163  92.0181 0002375  41.2273 318.8898 15.08834766 33142,6917.896,95.438,541.404,538.118,0.0
52291.0,STARLINK-3773,PAYLOAD,2022-11-24 12:11:32,15.08830319,0.0002344,53.2166,91.423,41.1698,318.947,3.0466e-06,-2.4e-06,0.0,0 STARLINK-3773,1 52291U 22041AG  22328.50801864 -.00000240  00000-0  30466-5 0  9998,2 52291  53.2166  91.4230 0002344  41.1698 318.9470 15.08830319 34383,6917.91,95.438,541.3969999999998,538.153,0.0
52291.0,STARLINK-3773,PAYLOAD,2022-11-24 13:46:56,15.08829998,0.0002324,53.2175,91.1258,41.4809,318.6359,-6.392899999999999e-06,-3.9e-06,0.0,0 STARLINK-3773,1 52291U 22041AG  22328.57425963 -.00000390  00000-0 -63929-5 0  9994,2 52291  53.2175  91.1258 0002324  41.4809 318.6359 15.08829998 33175,6917.911,95.438,541.384,538.168,0.0
52291.0,STARLINK-3773,PAYLOAD,2022-11-25 12:02:19,15.08835966,0.0002341,53.217,86.9633,34.3826,325.7317,8.786799999999999e-05,1.11e-05,0.0,0 STARLINK-3773,1 52291U 22041AG  22329.50161763  .00001110  00000-0  87868-4 0  9999,2 52291  53.2170  86.9633 0002341  34.3826 325.7317 15.08835966 33319,6917.893,95.438,541.377,538.138,0.0
